[
    {
        "Altitude(m)": 705569.1267655507,
        "Argument of Periapsis(deg)": 0.009112096949301655,
        "Eccentricity": 0.0,
        "Inclination(deg)": 45.0,
        "Latitude(deg)": 37.13070668433576,
        "Longitude(deg)": -116.75582671531585,
        "Mean Anomaly(deg)": 58.31747331798463,
        "RAAN(deg)": 294.99139844683344,
        "Satellite Name": "Constellation 1 1301",
        "Satellite Number": 1301,
        "Semi-Major Axis(m)": 7083131.272910544,
        "Time(s)": 152
    },
    {
        "Altitude(m)": 705574.8666993431,
        "Argument of Periapsis(deg)": 0.009172044955547059,
        "Eccentricity": 0.0,
        "Inclination(deg)": 45.0,
        "Latitude(deg)": 37.15902763109082,
        "Longitude(deg)": -116.69263341511547,
        "Mean Anomaly(deg)": 58.37817445823451,
        "RAAN(deg)": 294.99134185766786,
        "Satellite Name": "Constellation 1 1301",
        "Satellite Number": 1301,
        "Semi-Major Axis(m)": 7083131.272910544,
        "Time(s)": 153
    },
    {
        "Altitude(m)": 705580.6024068361,
        "Argument of Periapsis(deg)": 0.009231992961792466,
        "Eccentricity": 0.0,
        "Inclination(deg)": 45.0,
        "Latitude(deg)": 37.187310205408274,
        "Longitude(deg)": -116.62938995415654,
        "Mean Anomaly(deg)": 58.43887559848445,
        "RAAN(deg)": 294.99128526850234,
        "Satellite Name": "Constellation 1 1301",
        "Satellite Number": 1301,
        "Semi-Major Axis(m)": 7083131.272910544,
        "Time(s)": 154
    },
    {
        "Altitude(m)": 705586.3338523573,
        "Argument of Periapsis(deg)": 0.009291940968037872,
        "Eccentricity": 0.0,
        "Inclination(deg)": 45.0,
        "Latitude(deg)": 37.21555434014556,
        "Longitude(deg)": -116.56609631160595,
        "Mean Anomaly(deg)": 58.49957673873433,
        "RAAN(deg)": 294.99122867933676,
        "Satellite Name": "Constellation 1 1301",
        "Satellite Number": 1301,
        "Semi-Major Axis(m)": 7083131.272910544,
        "Time(s)": 155
    },
    {
        "Altitude(m)": 705592.0610002737,
        "Argument of Periapsis(deg)": 0.009351888974283276,
        "Eccentricity": 0.0,
        "Inclination(deg)": 45.0,
        "Latitude(deg)": 37.24375996811557,
        "Longitude(deg)": -116.50275263502756,
        "Mean Anomaly(deg)": 58.560277878984216,
        "RAAN(deg)": 294.99117209017123,
        "Satellite Name": "Constellation 1 1301",
        "Satellite Number": 1301,
        "Semi-Major Axis(m)": 7083131.272910544,
        "Time(s)": 156
    },
    {
        "Altitude(m)": 705597.7838149852,
        "Argument of Periapsis(deg)": 0.00941183698052868,
        "Eccentricity": 0.0,
        "Inclination(deg)": 45.0,
        "Latitude(deg)": 37.2719270220861,
        "Longitude(deg)": -116.43935856799607,
        "Mean Anomaly(deg)": 58.62097901923416,
        "RAAN(deg)": 294.99111550100565,
        "Satellite Name": "Constellation 1 1301",
        "Satellite Number": 1301,
        "Semi-Major Axis(m)": 7083131.272910544,
        "Time(s)": 157
    },
    {
        "Altitude(m)": 705603.5022609279,
        "Argument of Periapsis(deg)": 0.009471784986774088,
        "Eccentricity": 0.0,
        "Inclination(deg)": 45.0,
        "Latitude(deg)": 37.3000554347812,
        "Longitude(deg)": -116.37591425867987,
        "Mean Anomaly(deg)": 58.681680159484046,
        "RAAN(deg)": 294.99105891184,
        "Satellite Name": "Constellation 1 1301",
        "Satellite Number": 1301,
        "Semi-Major Axis(m)": 7083131.272910544,
        "Time(s)": 158
    },
    {
        "Altitude(m)": 705609.2163025832,
        "Argument of Periapsis(deg)": 0.009531732993019492,
        "Eccentricity": 0.0,
        "Inclination(deg)": 45.0,
        "Latitude(deg)": 37.32814513888101,
        "Longitude(deg)": -116.31241968745466,
        "Mean Anomaly(deg)": 58.742381299733935,
        "RAAN(deg)": 294.9910023226745,
        "Satellite Name": "Constellation 1 1301",
        "Satellite Number": 1301,
        "Semi-Major Axis(m)": 7083131.272910544,
        "Time(s)": 159
    },
    {
        "Altitude(m)": 705614.9259044555,
        "Argument of Periapsis(deg)": 0.009591680999264898,
        "Eccentricity": 0.0,
        "Inclination(deg)": 45.0,
        "Latitude(deg)": 37.35619606702211,
        "Longitude(deg)": -116.24887483500217,
        "Mean Anomaly(deg)": 58.80308243998382,
        "RAAN(deg)": 294.9909457335089,
        "Satellite Name": "Constellation 1 1301",
        "Satellite Number": 1301,
        "Semi-Major Axis(m)": 7083131.272910544,
        "Time(s)": 160
    },
    {
        "Altitude(m)": 705620.6310311046,
        "Argument of Periapsis(deg)": 0.009651629005510304,
        "Eccentricity": 0.0,
        "Inclination(deg)": 45.0,
        "Latitude(deg)": 37.38420815179802,
        "Longitude(deg)": -116.18527968231112,
        "Mean Anomaly(deg)": 58.86378358023375,
        "RAAN(deg)": 294.9908891443434,
        "Satellite Name": "Constellation 1 1301",
        "Satellite Number": 1301,
        "Semi-Major Axis(m)": 7083131.272910544,
        "Time(s)": 161
    },
    {
        "Altitude(m)": 705626.3316471112,
        "Argument of Periapsis(deg)": 0.00971157701175571,
        "Eccentricity": 0.0,
        "Inclination(deg)": 45.0,
        "Latitude(deg)": 37.41218132575942,
        "Longitude(deg)": -116.12163421067922,
        "Mean Anomaly(deg)": 58.92448472048364,
        "RAAN(deg)": 294.99083255517775,
        "Satellite Name": "Constellation 1 1301",
        "Satellite Number": 1301,
        "Semi-Major Axis(m)": 7083131.272910544,
        "Time(s)": 162
    },
    {
        "Altitude(m)": 705632.0277171104,
        "Argument of Periapsis(deg)": 0.009771525018001118,
        "Eccentricity": 0.0,
        "Inclination(deg)": 45.0,
        "Latitude(deg)": 37.4401155214147,
        "Longitude(deg)": -116.05793856981101,
        "Mean Anomaly(deg)": 58.98518586073352,
        "RAAN(deg)": 294.99077596601217,
        "Satellite Name": "Constellation 1 1301",
        "Satellite Number": 1301,
        "Semi-Major Axis(m)": 7083131.272910544,
        "Time(s)": 163
    },
    {
        "Altitude(m)": 705637.7192057587,
        "Argument of Periapsis(deg)": 0.00983147302424652,
        "Eccentricity": 0.0,
        "Inclination(deg)": 45.0,
        "Latitude(deg)": 37.4680106712298,
        "Longitude(deg)": -115.99419240543202,
        "Mean Anomaly(deg)": 59.04588700098347,
        "RAAN(deg)": 294.99071937684664,
        "Satellite Name": "Constellation 1 1301",
        "Satellite Number": 1301,
        "Semi-Major Axis(m)": 7083131.272910544,
        "Time(s)": 164
    },
    {
        "Altitude(m)": 705643.4060777627,
        "Argument of Periapsis(deg)": 0.009891421030491928,
        "Eccentricity": 0.0,
        "Inclination(deg)": 45.0,
        "Latitude(deg)": 37.49586670762938,
        "Longitude(deg)": -115.93039586787121,
        "Mean Anomaly(deg)": 59.10658814123335,
        "RAAN(deg)": 294.99066278768106,
        "Satellite Name": "Constellation 1 1301",
        "Satellite Number": 1301,
        "Semi-Major Axis(m)": 7083131.272910544,
        "Time(s)": 165
    },
    {
        "Altitude(m)": 705649.0882978615,
        "Argument of Periapsis(deg)": 0.009951369036737332,
        "Eccentricity": 0.0,
        "Inclination(deg)": 45.0,
        "Latitude(deg)": 37.523683562996624,
        "Longitude(deg)": -115.86654893967523,
        "Mean Anomaly(deg)": 59.16728928148324,
        "RAAN(deg)": 294.99060619851554,
        "Satellite Name": "Constellation 1 1301",
        "Satellite Number": 1301,
        "Semi-Major Axis(m)": 7083131.272910544,
        "Time(s)": 166
    },
    {
        "Altitude(m)": 705654.7658308359,
        "Argument of Periapsis(deg)": 0.010011317042982738,
        "Eccentricity": 0.0,
        "Inclination(deg)": 45.0,
        "Latitude(deg)": 37.55146116967381,
        "Longitude(deg)": -115.80265160370655,
        "Mean Anomaly(deg)": 59.227990421733125,
        "RAAN(deg)": 294.9905496093499,
        "Satellite Name": "Constellation 1 1301",
        "Satellite Number": 1301,
        "Semi-Major Axis(m)": 7083131.272910544,
        "Time(s)": 167
    },
    {
        "Altitude(m)": 705660.4386415049,
        "Argument of Periapsis(deg)": 0.010071265049228144,
        "Eccentricity": 0.0,
        "Inclination(deg)": 45.0,
        "Latitude(deg)": 37.57919945996255,
        "Longitude(deg)": -115.73870384314492,
        "Mean Anomaly(deg)": 59.28869156198306,
        "RAAN(deg)": 294.9904930201843,
        "Satellite Name": "Constellation 1 1301",
        "Satellite Number": 1301,
        "Semi-Major Axis(m)": 7083131.272910544,
        "Time(s)": 168
    },
    {
        "Altitude(m)": 705666.1066947252,
        "Argument of Periapsis(deg)": 0.01013121305547355,
        "Eccentricity": 0.0,
        "Inclination(deg)": 45.0,
        "Latitude(deg)": 37.606898366124334,
        "Longitude(deg)": -115.67470564148871,
        "Mean Anomaly(deg)": 59.34939270223295,
        "RAAN(deg)": 294.9904364310188,
        "Satellite Name": "Constellation 1 1301",
        "Satellite Number": 1301,
        "Semi-Major Axis(m)": 7083131.272910544,
        "Time(s)": 169
    },
    {
        "Altitude(m)": 705671.7699553927,
        "Argument of Periapsis(deg)": 0.010191161061718957,
        "Eccentricity": 0.0,
        "Inclination(deg)": 45.0,
        "Latitude(deg)": 37.63455782038074,
        "Longitude(deg)": -115.61065698255662,
        "Mean Anomaly(deg)": 59.41009384248283,
        "RAAN(deg)": 294.9903798418532,
        "Satellite Name": "Constellation 1 1301",
        "Satellite Number": 1301,
        "Semi-Major Axis(m)": 7083131.272910544,
        "Time(s)": 170
    }
]